{
  "type": "FeatureCollection",
  "features": [
    {
      "type": "Feature",
      "properties": {
        "norad_id": 31255,
        "name": "FENGYUN 1C DEB",
        "group": "fengyun-1c-debris",
        "lat": 8.735790178732877,
        "lon": -1.5350323355147493,
        "alt_km": 1002.3894411758529,
        "timestamp": "2025-12-25T11:37:44.716768+00:00",
        "meta_object_name": "FENGYUN 1C DEB",
        "meta_object_id": "1999-025BMM",
        "meta_epoch": "2025-12-23T11:06:19.382976",
        "meta_mean_motion": 14.09743921,
        "meta_eccentricity": 0.02703562,
        "meta_inclination": 99.3085,
        "meta_ra_of_asc_node": 174.9282,
        "meta_arg_of_pericenter": 313.5957,
        "meta_mean_anomaly": 44.3057,
        "meta_ephemeris_type": 0,
        "meta_classification_type": "U",
        "meta_norad_cat_id": 31255,
        "meta_element_set_no": 999,
        "meta_rev_at_epoch": 96952,
        "meta_bstar": 0.00028400087,
        "meta_mean_motion_dot": 6.46e-06,
        "meta_mean_motion_ddot": 0,
        "tle_line1": "1 31255U 99025BMM 25357.46272434  .00000646  00000+0  28400-3 0  9997",
        "tle_line2": "2 31255  99.3085 174.9282 0270356 313.5957  44.3057 14.09743921969525"
      },
      "geometry": {
        "type": "Point",
        "coordinates": [
          -1.5350323355147493,
          8.735790178732877
        ]
      }
    },
    {
      "type": "Feature",
      "properties": {
        "norad_id": 31256,
        "name": "FENGYUN 1C DEB",
        "group": "fengyun-1c-debris",
        "lat": 67.6402373729309,
        "lon": 48.382653168595894,
        "alt_km": 684.5370216654455,
        "timestamp": "2025-12-25T11:37:44.716782+00:00",
        "meta_object_name": "FENGYUN 1C DEB",
        "meta_object_id": "1999-025BMN",
        "meta_epoch": "2025-12-24T12:53:06.488160",
        "meta_mean_motion": 14.03401904,
        "meta_eccentricity": 0.03085446,
        "meta_inclination": 98.6795,
        "meta_ra_of_asc_node": 205.6783,
        "meta_arg_of_pericenter": 80.7852,
        "meta_mean_anomaly": 282.8074,
        "meta_ephemeris_type": 0,
        "meta_classification_type": "U",
        "meta_norad_cat_id": 31256,
        "meta_element_set_no": 999,
        "meta_rev_at_epoch": 65147,
        "meta_bstar": 0.0022018185,
        "meta_mean_motion_dot": 5.216e-05,
        "meta_mean_motion_ddot": 0,
        "tle_line1": "1 31256U 99025BMN 25358.53688065  .00005216  00000+0  22018-2 0  9994",
        "tle_line2": "2 31256  98.6795 205.6783 0308544  80.7852 282.8074 14.03401904651478"
      },
      "geometry": {
        "type": "Point",
        "coordinates": [
          48.382653168595894,
          67.6402373729309
        ]
      }
    },
    {
      "type": "Feature",
      "properties": {
        "norad_id": 31258,
        "name": "FENGYUN 1C DEB",
        "group": "fengyun-1c-debris",
        "lat": -70.9568362109272,
        "lon": 177.2543273816141,
        "alt_km": 517.0926245041865,
        "timestamp": "2025-12-25T11:37:44.716797+00:00",
        "meta_object_name": "FENGYUN 1C DEB",
        "meta_object_id": "1999-025BMQ",
        "meta_epoch": "2025-12-24T09:10:00.892992",
        "meta_mean_motion": 15.16490978,
        "meta_eccentricity": 0.00080756,
        "meta_inclination": 98.8459,
        "meta_ra_of_asc_node": 149.1496,
        "meta_arg_of_pericenter": 313.0592,
        "meta_mean_anomaly": 77.2455,
        "meta_ephemeris_type": 0,
        "meta_classification_type": "U",
        "meta_norad_cat_id": 31258,
        "meta_element_set_no": 999,
        "meta_rev_at_epoch": 97287,
        "meta_bstar": 0.010968771,
        "meta_mean_motion_dot": 0.00220131,
        "meta_mean_motion_ddot": 0,
        "tle_line1": "1 31258U 99025BMQ 25358.38195478  .00220131  00000+0  10969-1 0  9996",
        "tle_line2": "2 31258  98.8459 149.1496 0008075 313.0592  77.2455 15.16490978972874"
      },
      "geometry": {
        "type": "Point",
        "coordinates": [
          177.2543273816141,
          -70.9568362109272
        ]
      }
    },
    {
      "type": "Feature",
      "properties": {
        "norad_id": 31259,
        "name": "FENGYUN 1C DEB",
        "group": "fengyun-1c-debris",
        "lat": -52.604962008871,
        "lon": 90.7824734406705,
        "alt_km": 888.0022133919083,
        "timestamp": "2025-12-25T11:37:44.716819+00:00",
        "meta_object_name": "FENGYUN 1C DEB",
        "meta_object_id": "1999-025BMR",
        "meta_epoch": "2025-12-24T11:04:10.952832",
        "meta_mean_motion": 14.15096637,
        "meta_eccentricity": 0.00658111,
        "meta_inclination": 99.0087,
        "meta_ra_of_asc_node": 77.7718,
        "meta_arg_of_pericenter": 163.7983,
        "meta_mean_anomaly": 332.0973,
        "meta_ephemeris_type": 0,
        "meta_classification_type": "U",
        "meta_norad_cat_id": 31259,
        "meta_element_set_no": 999,
        "meta_rev_at_epoch": 95735,
        "meta_bstar": 0.0017724581,
        "meta_mean_motion_dot": 3.466e-05,
        "meta_mean_motion_ddot": 0,
        "tle_line1": "1 31259U 99025BMR 25358.46123788  .00003466  00000+0  17725-2 0  9999",
        "tle_line2": "2 31259  99.0087  77.7718 0065811 163.7983 332.0973 14.15096637957358"
      },
      "geometry": {
        "type": "Point",
        "coordinates": [
          90.7824734406705,
          -52.604962008871
        ]
      }
    },
    {
      "type": "Feature",
      "properties": {
        "norad_id": 31260,
        "name": "FENGYUN 1C DEB",
        "group": "fengyun-1c-debris",
        "lat": -67.64139348382443,
        "lon": -80.52354773935275,
        "alt_km": 750.4324662375948,
        "timestamp": "2025-12-25T11:37:44.716829+00:00",
        "meta_object_name": "FENGYUN 1C DEB",
        "meta_object_id": "1999-025BMS",
        "meta_epoch": "2025-12-24T16:01:52.760928",
        "meta_mean_motion": 14.36490974,
        "meta_eccentricity": 0.00463688,
        "meta_inclination": 98.9566,
        "meta_ra_of_asc_node": 256.0821,
        "meta_arg_of_pericenter": 257.0576,
        "meta_mean_anomaly": 132.8353,
        "meta_ephemeris_type": 0,
        "meta_classification_type": "U",
        "meta_norad_cat_id": 31260,
        "meta_element_set_no": 999,
        "meta_rev_at_epoch": 97365,
        "meta_bstar": 0.00098697525,
        "meta_mean_motion_dot": 2.885e-05,
        "meta_mean_motion_ddot": 0,
        "tle_line1": "1 31260U 99025BMS 25358.66797177  .00002885  00000+0  98698-3 0  9995",
        "tle_line2": "2 31260  98.9566 256.0821 0046368 257.0576 132.8353 14.36490974973652"
      },
      "geometry": {
        "type": "Point",
        "coordinates": [
          -80.52354773935275,
          -67.64139348382443
        ]
      }
    },
    {
      "type": "Feature",
      "properties": {
        "norad_id": 31261,
        "name": "FENGYUN 1C DEB",
        "group": "fengyun-1c-debris",
        "lat": 65.31675731377973,
        "lon": 153.77608328262963,
        "alt_km": 746.1900152091293,
        "timestamp": "2025-12-25T11:37:44.716839+00:00",
        "meta_object_name": "FENGYUN 1C DEB",
        "meta_object_id": "1999-025BMT",
        "meta_epoch": "2025-12-24T08:25:24.983904",
        "meta_mean_motion": 14.40147806,
        "meta_eccentricity": 0.00502062,
        "meta_inclination": 99.0172,
        "meta_ra_of_asc_node": 312.3699,
        "meta_arg_of_pericenter": 198.0059,
        "meta_mean_anomaly": 161.935,
        "meta_ephemeris_type": 0,
        "meta_classification_type": "U",
        "meta_norad_cat_id": 31261,
        "meta_element_set_no": 999,
        "meta_rev_at_epoch": 97517,
        "meta_bstar": 0.00092763496,
        "meta_mean_motion_dot": 2.926e-05,
        "meta_mean_motion_ddot": 0,
        "tle_line1": "1 31261U 99025BMT 25358.35098361  .00002926  00000+0  92763-3 0  9994",
        "tle_line2": "2 31261  99.0172 312.3699 0050206 198.0059 161.9350 14.40147806975170"
      },
      "geometry": {
        "type": "Point",
        "coordinates": [
          153.77608328262963,
          65.31675731377973
        ]
      }
    },
    {
      "type": "Feature",
      "properties": {
        "norad_id": 31262,
        "name": "FENGYUN 1C DEB",
        "group": "fengyun-1c-debris",
        "lat": -28.999326140946938,
        "lon": -101.9213941244883,
        "alt_km": 870.0092757570746,
        "timestamp": "2025-12-25T11:37:44.716851+00:00",
        "meta_object_name": "FENGYUN 1C DEB",
        "meta_object_id": "1999-025BMU",
        "meta_epoch": "2025-12-23T04:36:31.658976",
        "meta_mean_motion": 14.18250623,
        "meta_eccentricity": 0.00545996,
        "meta_inclination": 99.0016,
        "meta_ra_of_asc_node": 80.7949,
        "meta_arg_of_pericenter": 68.7564,
        "meta_mean_anomaly": 321.7706,
        "meta_ephemeris_type": 0,
        "meta_classification_type": "U",
        "meta_norad_cat_id": 31262,
        "meta_element_set_no": 999,
        "meta_rev_at_epoch": 95857,
        "meta_bstar": 0.0016102319,
        "meta_mean_motion_dot": 3.318e-05,
        "meta_mean_motion_ddot": 0,
        "tle_line1": "1 31262U 99025BMU 25357.19203309  .00003318  00000+0  16102-2 0  9994",
        "tle_line2": "2 31262  99.0016  80.7949 0054599  68.7564 321.7706 14.18250623958578"
      },
      "geometry": {
        "type": "Point",
        "coordinates": [
          -101.9213941244883,
          -28.999326140946938
        ]
      }
    }
  ]
}